{"type": "FeatureCollection", "features": [ {"type": "Feature", "properties": {"norad_id": 42741, "name": "EUTELSAT 172B", "group": "eutelsat", "lat": 0.004618738018335614, "lon": 63.95254918966613, "alt_km": 35787.111503022956, "timestamp": "2025-12-09T11:33:54.471992+00:00", "meta": {"OBJECT_NAME": "EUTELSAT 172B", "OBJECT_ID": "2017-029B", "EPOCH": "2025-12-09T02:24:13.275360", "MEAN_MOTION": 1.00270381, "ECCENTRICITY": 1.54e-05, "INCLINATION": 0.0113, "RA_OF_ASC_NODE": 92.4681, "ARG_OF_PERICENTER": 154.1334, "MEAN_ANOMALY": 39.5583, "EPHEMERIS_TYPE": 0, "CLASSIFICATION_TYPE": "U", "NORAD_CAT_ID": 42741, "ELEMENT_SET_NO": 999, "REV_AT_EPOCH": 3182, "BSTAR": 0, "MEAN_MOTION_DOT": -4e-08, "MEAN_MOTION_DDOT": 0}, "tle": {"line1": "1 42741U 17029B   25343.10015365 -.00000004  00000+0  00000+0 0  9998", "line2": "2 42741   0.0113  92.4681 0000154 154.1334  39.5583  1.00270381 31825"}}, "geometry": {"type": "Point", "coordinates": [63.95254918966613, 0.004618738018335614]}}, {"type": "Feature", "properties": {"norad_id": 44334, "name": "EUTELSAT 7C", "group": "eutelsat", "lat": 0.049495868753522, "lon": -101.06151941484931, "alt_km": 35772.587063775565, "timestamp": "2025-12-09T11:33:54.472004+00:00", "meta": {"OBJECT_NAME": "EUTELSAT 7C", "OBJECT_ID": "2019-034B", "EPOCH": "2025-12-09T03:20:00.432096", "MEAN_MOTION": 1.00270641, "ECCENTRICITY": 0.0003397, "INCLINATION": 0.0734, "RA_OF_ASC_NODE": 180.1669, "ARG_OF_PERICENTER": 62.1617, "MEAN_ANOMALY": 252.7903, "EPHEMERIS_TYPE": 0, "CLASSIFICATION_TYPE": "U", "NORAD_CAT_ID": 44334, "ELEMENT_SET_NO": 999, "REV_AT_EPOCH": 493, "BSTAR": 0, "MEAN_MOTION_DOT": 5e-07, "MEAN_MOTION_DDOT": 0}, "tle": {"line1": "1 44334U 19034B   25343.13889389  .00000050  00000+0  00000+0 0  9994", "line2": "2 44334   0.0734 180.1669 0003397  62.1617 252.7903  1.00270641  4935"}}, "geometry": {"type": "Point", "coordinates": [-101.06151941484931, 0.049495868753522]}}, {"type": "Feature", "properties": {"norad_id": 44624, "name": "EUTELSAT 5 WEST B", "group": "eutelsat", "lat": -0.08462202735796516, "lon": -113.06354045691606, "alt_km": 35771.71908795609, "timestamp": "2025-12-09T11:33:54.472016+00:00", "meta": {"OBJECT_NAME": "EUTELSAT 5 WEST B", "OBJECT_ID": "2019-067A", "EPOCH": "2025-12-09T03:16:38.254368", "MEAN_MOTION": 1.00271055, "ECCENTRICITY": 0.000352, "INCLINATION": 0.0643, "RA_OF_ASC_NODE": 341.1369, "ARG_OF_PERICENTER": 277.9406, "MEAN_ANOMALY": 223.214, "EPHEMERIS_TYPE": 0, "CLASSIFICATION_TYPE": "U", "NORAD_CAT_ID": 44624, "ELEMENT_SET_NO": 999, "REV_AT_EPOCH": 2253, "BSTAR": 0, "MEAN_MOTION_DOT": -4e-07, "MEAN_MOTION_DDOT": 0}, "tle": {"line1": "1 44624U 19067A   25343.13655387 -.00000040  00000+0  00000+0 0  9991", "line2": "2 44624   0.0643 341.1369 0003520 277.9406 223.2140  1.00271055 22534"}}, "geometry": {"type": "Point", "coordinates": [-113.06354045691606, -0.08462202735796516]}}, {"type": "Feature", "properties": {"norad_id": 45027, "name": "EUTELSAT KONNECT", "group": "eutelsat", "lat": -0.0021087774002096294, "lon": -100.87039032440912, "alt_km": 35780.13331897158, "timestamp": "2025-12-09T11:33:54.472028+00:00", "meta": {"OBJECT_NAME": "EUTELSAT KONNECT", "OBJECT_ID": "2020-005B", "EPOCH": "2025-12-09T03:20:07.920384", "MEAN_MOTION": 1.00268789, "ECCENTRICITY": 0.0001779, "INCLINATION": 0.0699, "RA_OF_ASC_NODE": 96.7799, "ARG_OF_PERICENTER": 188.4492, "MEAN_ANOMALY": 210.1344, "EPHEMERIS_TYPE": 0, "CLASSIFICATION_TYPE": "U", "NORAD_CAT_ID": 45027, "ELEMENT_SET_NO": 999, "REV_AT_EPOCH": 2243, "BSTAR": 0, "MEAN_MOTION_DOT": 5.1e-07, "MEAN_MOTION_DDOT": 0}, "tle": {"line1": "1 45027U 20005B   25343.13898056  .00000051  00000+0  00000+0 0  9996", "line2": "2 45027   0.0699  96.7799 0001779 188.4492 210.1344  1.00268789 22438"}}, "geometry": {"type": "Point", "coordinates": [-100.87039032440912, -0.0021087774002096294]}}, {"type": "Feature", "properties": {"norad_id": 49056, "name": "EUTELSAT QUANTUM", "group": "eutelsat", "lat": -0.027383118678021054, "lon": -60.33524840897684, "alt_km": 35772.319975989645, "timestamp": "2025-12-09T11:33:54.472040+00:00", "meta": {"OBJECT_NAME": "EUTELSAT QUANTUM", "OBJECT_ID": "2021-069B", "EPOCH": "2025-12-09T03:31:36.820416", "MEAN_MOTION": 1.00270774, "ECCENTRICITY": 0.0003763, "INCLINATION": 0.0132, "RA_OF_ASC_NODE": 12.1818, "ARG_OF_PERICENTER": 259.1599, "MEAN_ANOMALY": 267.4033, "EPHEMERIS_TYPE": 0, "CLASSIFICATION_TYPE": "U", "NORAD_CAT_ID": 49056, "ELEMENT_SET_NO": 999, "REV_AT_EPOCH": 1602, "BSTAR": 0, "MEAN_MOTION_DOT": 1.28e-06, "MEAN_MOTION_DDOT": 0}, "tle": {"line1": "1 49056U 21069B   25343.14695394  .00000128  00000+0  00000+0 0  9999", "line2": "2 49056   0.0132  12.1818 0003763 259.1599 267.4033  1.00270774 16024"}}, "geometry": {"type": "Point", "coordinates": [-60.33524840897684, -0.027383118678021054]}}, {"type": "Feature", "properties": {"norad_id": 53765, "name": "EUTELSAT KONNECT VHTS", "group": "eutelsat", "lat": 0.004789445790424017, "lon": -105.33929892382096, "alt_km": 35775.725936990195, "timestamp": "2025-12-09T11:33:54.472052+00:00", "meta": {"OBJECT_NAME": "EUTELSAT KONNECT VHTS", "OBJECT_ID": "2022-110A", "EPOCH": "2025-12-09T03:18:45.550080", "MEAN_MOTION": 1.00270735, "ECCENTRICITY": 0.0002616, "INCLINATION": 0.0631, "RA_OF_ASC_NODE": 102.664, "ARG_OF_PERICENTER": 135.7295, "MEAN_ANOMALY": 252.1373, "EPHEMERIS_TYPE": 0, "CLASSIFICATION_TYPE": "U", "NORAD_CAT_ID": 53765, "ELEMENT_SET_NO": 999, "REV_AT_EPOCH": 492, "BSTAR": 0, "MEAN_MOTION_DOT": 1.9e-07, "MEAN_MOTION_DDOT": 0}, "tle": {"line1": "1 53765U 22110A   25343.13802720  .00000019  00000+0  00000+0 0  9990", "line2": "2 53765   0.0631 102.6640 0002616 135.7295 252.1373  1.00270735  4927"}}, "geometry": {"type": "Point", "coordinates": [-105.33929892382096, 0.004789445790424017]}}, {"type": "Feature", "properties": {"norad_id": 54048, "name": "EUTELSAT HOTBIRD 13F", "group": "eutelsat", "lat": -0.0391707749884199, "lon": -95.06187727002741, "alt_km": 35785.75673346807, "timestamp": "2025-12-09T11:33:54.472064+00:00", "meta": {"OBJECT_NAME": "EUTELSAT HOTBIRD 13F", "OBJECT_ID": "2022-134A", "EPOCH": "2025-12-09T01:39:02.259360", "MEAN_MOTION": 1.00271707, "ECCENTRICITY": 0.0002159, "INCLINATION": 0.0489, "RA_OF_ASC_NODE": 292.5872, "ARG_OF_PERICENTER": 60.3329, "MEAN_ANOMALY": 122.9214, "EPHEMERIS_TYPE": 0, "CLASSIFICATION_TYPE": "U", "NORAD_CAT_ID": 54048, "ELEMENT_SET_NO": 999, "REV_AT_EPOCH": 1147, "BSTAR": 0, "MEAN_MOTION_DOT": 8.9e-07, "MEAN_MOTION_DDOT": 0}, "tle": {"line1": "1 54048U 22134A   25343.06877615  .00000089  00000+0  00000+0 0  9995", "line2": "2 54048   0.0489 292.5872 0002159  60.3329 122.9214  1.00271707 11478"}}, "geometry": {"type": "Point", "coordinates": [-95.06187727002741, -0.0391707749884199]}}, {"type": "Feature", "properties": {"norad_id": 54225, "name": "EUTELSAT HOTBIRD 13G", "group": "eutelsat", "lat": -0.0005232373803010133, "lon": -95.04575625048366, "alt_km": 35785.154508113905, "timestamp": "2025-12-09T11:33:54.472076+00:00", "meta": {"OBJECT_NAME": "EUTELSAT HOTBIRD 13G", "OBJECT_ID": "2022-146A", "EPOCH": "2025-12-09T00:10:38.546976", "MEAN_MOTION": 1.00269396, "ECCENTRICITY": 0.0001665, "INCLINATION": 0.0487, "RA_OF_ASC_NODE": 236.9876, "ARG_OF_PERICENTER": 310.6291, "MEAN_ANOMALY": 266.0423, "EPHEMERIS_TYPE": 0, "CLASSIFICATION_TYPE": "U", "NORAD_CAT_ID": 54225, "ELEMENT_SET_NO": 999, "REV_AT_EPOCH": 555, "BSTAR": 0, "MEAN_MOTION_DOT": 8.9e-07, "MEAN_MOTION_DDOT": 0}, "tle": {"line1": "1 54225U 22146A   25343.00739059  .00000089  00000+0  00000+0 0  9998", "line2": "2 54225   0.0487 236.9876 0001665 310.6291 266.0423  1.00269396  5554"}}, "geometry": {"type": "Point", "coordinates": [-95.04575625048366, -0.0005232373803010133]}}, {"type": "Feature", "properties": {"norad_id": 54259, "name": "EUTELSAT 10B", "group": "eutelsat", "lat": -0.005090579042414821, "lon": -98.0743911282976, "alt_km": 35786.5239236276, "timestamp": "2025-12-09T11:33:54.472088+00:00", "meta": {"OBJECT_NAME": "EUTELSAT 10B", "OBJECT_ID": "2022-157A", "EPOCH": "2025-12-09T03:20:52.848384", "MEAN_MOTION": 1.00268961, "ECCENTRICITY": 8.42e-05, "INCLINATION": 0.0634, "RA_OF_ASC_NODE": 98.9247, "ARG_OF_PERICENTER": 78.1718, "MEAN_ANOMALY": 321.232, "EPHEMERIS_TYPE": 0, "CLASSIFICATION_TYPE": "U", "NORAD_CAT_ID": 54259, "ELEMENT_SET_NO": 999, "REV_AT_EPOCH": 1112, "BSTAR": 0, "MEAN_MOTION_DOT": 7e-07, "MEAN_MOTION_DDOT": 0}, "tle": {"line1": "1 54259U 22157A   25343.13950056  .00000070  00000+0  00000+0 0  9993", "line2": "2 54259   0.0634  98.9247 0000842  78.1718 321.2320  1.00268961 11126"}}, "geometry": {"type": "Point", "coordinates": [-98.0743911282976, -0.005090579042414821]}}, {"type": "Feature", "properties": {"norad_id": 59346, "name": "EUTELSAT 36D", "group": "eutelsat", "lat": -0.016923101364043052, "lon": -72.19447479703905, "alt_km": 35785.2081300511, "timestamp": "2025-12-09T11:33:54.472099+00:00", "meta": {"OBJECT_NAME": "EUTELSAT 36D", "OBJECT_ID": "2024-059A", "EPOCH": "2025-12-09T03:28:14.641824", "MEAN_MOTION": 1.00269138, "ECCENTRICITY": 4.01e-05, "INCLINATION": 0.0022, "RA_OF_ASC_NODE": 26.1636, "ARG_OF_PERICENTER": 283.0923, "MEAN_ANOMALY": 216.8094, "EPHEMERIS_TYPE": 0, "CLASSIFICATION_TYPE": "U", "NORAD_CAT_ID": 59346, "ELEMENT_SET_NO": 999, "REV_AT_EPOCH": 624, "BSTAR": 0, "MEAN_MOTION_DOT": 1.58e-06, "MEAN_MOTION_DDOT": 0}, "tle": {"line1": "1 59346U 24059A   25343.14461391  .00000158  00000+0  00000+0 0  9995", "line2": "2 59346   0.0022  26.1636 0000401 283.0923 216.8094  1.00269138  6241"}}, "geometry": {"type": "Point", "coordinates": [-72.19447479703905, -0.016923101364043052]}}]}